{
  "type": "FeatureCollection",
  "features": [
    {
      "type": "Feature",
      "properties": {
        "norad_id": 39766,
        "name": "ALOS-2",
        "group": "resource",
        "lat": -25.501352954839902,
        "lon": 78.46036447532504,
        "alt_km": 637.3732376000098,
        "timestamp": "2025-12-05T16:54:14.326841+00:00",
        "meta_object_name": "ALOS-2",
        "meta_object_id": "2014-029A",
        "meta_epoch": "2025-12-05T07:16:51.545568",
        "meta_mean_motion": 14.79456881,
        "meta_eccentricity": 0.00014854,
        "meta_inclination": 97.9238,
        "meta_ra_of_asc_node": 74.2558,
        "meta_arg_of_pericenter": 106.6429,
        "meta_mean_anomaly": 253.4946,
        "meta_ephemeris_type": 0,
        "meta_classification_type": "U",
        "meta_norad_cat_id": 39766,
        "meta_element_set_no": 999,
        "meta_rev_at_epoch": 62291,
        "meta_bstar": 0.00048657938,
        "meta_mean_motion_dot": 3.583e-05,
        "meta_mean_motion_ddot": 0,
        "tle_line1": "1 39766U 14029A   25339.30337437  .00003583  00000+0  48658-3 0  9991",
        "tle_line2": "2 39766  97.9238  74.2558 0001485 106.6429 253.4946 14.79456881622914"
      },
      "geometry": {
        "type": "Point",
        "coordinates": [
          78.46036447532504,
          -25.501352954839902
        ]
      }
    },
    {
      "type": "Feature",
      "properties": {
        "norad_id": 40010,
        "name": "KAZEOSAT 2",
        "group": "resource",
        "lat": 77.01668709461276,
        "lon": 39.50420343527147,
        "alt_km": 609.3277496402034,
        "timestamp": "2025-12-05T16:54:14.326861+00:00",
        "meta_object_name": "KAZEOSAT 2",
        "meta_object_id": "2014-033A",
        "meta_epoch": "2025-12-05T06:45:00.857952",
        "meta_mean_motion": 14.85148918,
        "meta_eccentricity": 0.00073211,
        "meta_inclination": 97.551,
        "meta_ra_of_asc_node": 183.9807,
        "meta_arg_of_pericenter": 234.3773,
        "meta_mean_anomaly": 125.6761,
        "meta_ephemeris_type": 0,
        "meta_classification_type": "U",
        "meta_norad_cat_id": 40010,
        "meta_element_set_no": 999,
        "meta_rev_at_epoch": 62017,
        "meta_bstar": 0.00017184561,
        "meta_mean_motion_dot": 1.421e-05,
        "meta_mean_motion_ddot": 0,
        "tle_line1": "1 40010U 14033A   25339.28125993  .00001421  00000+0  17185-3 0  9999",
        "tle_line2": "2 40010  97.5510 183.9807 0007321 234.3773 125.6761 14.85148918620175"
      },
      "geometry": {
        "type": "Point",
        "coordinates": [
          39.50420343527147,
          77.01668709461276
        ]
      }
    },
    {
      "type": "Feature",
      "properties": {
        "norad_id": 40011,
        "name": "HODOYOSHI-4",
        "group": "resource",
        "lat": 49.44445264562356,
        "lon": -2.1597754678784056,
        "alt_km": 602.759837250419,
        "timestamp": "2025-12-05T16:54:14.326871+00:00",
        "meta_object_name": "HODOYOSHI-4",
        "meta_object_id": "2014-033B",
        "meta_epoch": "2025-12-05T06:37:58.497600",
        "meta_mean_motion": 14.87438469,
        "meta_eccentricity": 0.00227531,
        "meta_inclination": 97.5412,
        "meta_ra_of_asc_node": 168.5282,
        "meta_arg_of_pericenter": 226.0863,
        "meta_mean_anomaly": 133.8476,
        "meta_ephemeris_type": 0,
        "meta_classification_type": "U",
        "meta_norad_cat_id": 40011,
        "meta_element_set_no": 999,
        "meta_rev_at_epoch": 61997,
        "meta_bstar": 0.00044399097,
        "meta_mean_motion_dot": 3.986e-05,
        "meta_mean_motion_ddot": 0,
        "tle_line1": "1 40011U 14033B   25339.27637150  .00003986  00000+0  44399-3 0  9997",
        "tle_line2": "2 40011  97.5412 168.5282 0022753 226.0863 133.8476 14.87438469619972"
      },
      "geometry": {
        "type": "Point",
        "coordinates": [
          -2.1597754678784056,
          49.44445264562356
        ]
      }
    },
    {
      "type": "Feature",
      "properties": {
        "norad_id": 40013,
        "name": "DEIMOS-2",
        "group": "resource",
        "lat": 31.033495556329846,
        "lon": 40.347946374731436,
        "alt_km": 586.8188359730248,
        "timestamp": "2025-12-05T16:54:14.326880+00:00",
        "meta_object_name": "DEIMOS-2",
        "meta_object_id": "2014-033D",
        "meta_epoch": "2025-12-05T06:35:21.482880",
        "meta_mean_motion": 14.92920582,
        "meta_eccentricity": 9.449e-05,
        "meta_inclination": 97.6071,
        "meta_ra_of_asc_node": 215.3204,
        "meta_arg_of_pericenter": 92.5974,
        "meta_mean_anomaly": 267.5354,
        "meta_ephemeris_type": 0,
        "meta_classification_type": "U",
        "meta_norad_cat_id": 40013,
        "meta_element_set_no": 999,
        "meta_rev_at_epoch": 60878,
        "meta_bstar": 0.00049174711,
        "meta_mean_motion_dot": 5.048e-05,
        "meta_mean_motion_ddot": 0,
        "tle_line1": "1 40013U 14033D   25339.27455420  .00005048  00000+0  49175-3 0  9995",
        "tle_line2": "2 40013  97.6071 215.3204 0000944  92.5974 267.5354 14.92920582608783"
      },
      "geometry": {
        "type": "Point",
        "coordinates": [
          40.347946374731436,
          31.033495556329846
        ]
      }
    },
    {
      "type": "Feature",
      "properties": {
        "norad_id": 40015,
        "name": "HODOYOSHI-3",
        "group": "resource",
        "lat": 56.229630689418386,
        "lon": -22.606758044270958,
        "alt_km": 628.05353681829,
        "timestamp": "2025-12-05T16:54:14.326889+00:00",
        "meta_object_name": "HODOYOSHI-3",
        "meta_object_id": "2014-033F",
        "meta_epoch": "2025-12-05T06:38:42.881280",
        "meta_mean_motion": 14.84766036,
        "meta_eccentricity": 0.00318393,
        "meta_inclination": 97.6194,
        "meta_ra_of_asc_node": 145.4367,
        "meta_arg_of_pericenter": 273.4939,
        "meta_mean_anomaly": 86.2635,
        "meta_ephemeris_type": 0,
        "meta_classification_type": "U",
        "meta_norad_cat_id": 40015,
        "meta_element_set_no": 999,
        "meta_rev_at_epoch": 61884,
        "meta_bstar": 0.0004179405,
        "meta_mean_motion_dot": 3.524e-05,
        "meta_mean_motion_ddot": 0,
        "tle_line1": "1 40015U 14033F   25339.27688520  .00003524  00000+0  41794-3 0  9992",
        "tle_line2": "2 40015  97.6194 145.4367 0031839 273.4939  86.2635 14.84766036618841"
      },
      "geometry": {
        "type": "Point",
        "coordinates": [
          -22.606758044270958,
          56.229630689418386
        ]
      }
    },
    {
      "type": "Feature",
      "properties": {
        "norad_id": 40053,
        "name": "SPOT 7",
        "group": "resource",
        "lat": 80.91348682603055,
        "lon": -75.24352446334042,
        "alt_km": 682.3390831188435,
        "timestamp": "2025-12-05T16:54:14.326898+00:00",
        "meta_object_name": "SPOT 7",
        "meta_object_id": "2014-034A",
        "meta_epoch": "2025-12-05T08:15:17.005248",
        "meta_mean_motion": 14.60719281,
        "meta_eccentricity": 0.00015279,
        "meta_inclination": 98.0916,
        "meta_ra_of_asc_node": 41.5896,
        "meta_arg_of_pericenter": 95.9133,
        "meta_mean_anomaly": 264.2242,
        "meta_ephemeris_type": 0,
        "meta_classification_type": "U",
        "meta_norad_cat_id": 40053,
        "meta_element_set_no": 999,
        "meta_rev_at_epoch": 60883,
        "meta_bstar": 0.00024255522,
        "meta_mean_motion_dot": 1.137e-05,
        "meta_mean_motion_ddot": 0,
        "tle_line1": "1 40053U 14034A   25339.34394682  .00001137  00000+0  24256-3 0  9998",
        "tle_line2": "2 40053  98.0916  41.5896 0001527  95.9133 264.2242 14.60719281608831"
      },
      "geometry": {
        "type": "Point",
        "coordinates": [
          -75.24352446334042,
          80.91348682603055
        ]
      }
    },
    {
      "type": "Feature",
      "properties": {
        "norad_id": 40072,
        "name": "SKYSAT-B",
        "group": "resource",
        "lat": 74.24689607445858,
        "lon": -108.37961915125415,
        "alt_km": 599.6326687212841,
        "timestamp": "2025-12-05T16:54:14.326908+00:00",
        "meta_object_name": "SKYSAT-B",
        "meta_object_id": "2014-037D",
        "meta_epoch": "2025-12-05T05:15:28.764288",
        "meta_mean_motion": 14.87283111,
        "meta_eccentricity": 0.00055298,
        "meta_inclination": 98.3598,
        "meta_ra_of_asc_node": 282.5286,
        "meta_arg_of_pericenter": 172.8855,
        "meta_mean_anomaly": 187.2439,
        "meta_ephemeris_type": 0,
        "meta_classification_type": "U",
        "meta_norad_cat_id": 40072,
        "meta_element_set_no": 999,
        "meta_rev_at_epoch": 61712,
        "meta_bstar": 0.00038962845,
        "meta_mean_motion_dot": 3.454e-05,
        "meta_mean_motion_ddot": 0,
        "tle_line1": "1 40072U 14037D   25339.21908292  .00003454  00000+0  38963-3 0  9990",
        "tle_line2": "2 40072  98.3598 282.5286 0005529 172.8855 187.2439 14.87283111617124"
      },
      "geometry": {
        "type": "Point",
        "coordinates": [
          -108.37961915125415,
          74.24689607445858
        ]
      }
    }
  ]
}